{
  "type": "FeatureCollection",
  "features": [
    {
      "type": "Feature",
      "properties": {
        "norad_id": 41877,
        "name": "RESOURCESAT-2A",
        "group": "resource",
        "lat": -6.878212842812101,
        "lon": -126.71702515816219,
        "alt_km": 823.5849169743351,
        "timestamp": "2025-12-10T11:33:53.048812+00:00",
        "meta_object_name": "RESOURCESAT-2A",
        "meta_object_id": "2016-074A",
        "meta_epoch": "2025-12-10T03:55:54.118848",
        "meta_mean_motion": 14.21598271,
        "meta_eccentricity": 0.0001135,
        "meta_inclination": 98.7755,
        "meta_ra_of_asc_node": 54.0345,
        "meta_arg_of_pericenter": 268.3465,
        "meta_mean_anomaly": 91.7582,
        "meta_ephemeris_type": 0,
        "meta_classification_type": "U",
        "meta_norad_cat_id": 41877,
        "meta_element_set_no": 999,
        "meta_rev_at_epoch": 46744,
        "meta_bstar": 0.00015758,
        "meta_mean_motion_dot": 3.01e-06,
        "meta_mean_motion_ddot": 0,
        "tle_line1": "1 41877U 16074A   25344.16382082  .00000301  00000+0  15758-3 0  9995",
        "tle_line2": "2 41877  98.7755  54.0345 0001135 268.3465  91.7582 14.21598271467442"
      },
      "geometry": {
        "type": "Point",
        "coordinates": [
          -126.71702515816219,
          -6.878212842812101
        ]
      }
    },
    {
      "type": "Feature",
      "properties": {
        "norad_id": 41948,
        "name": "CARTOSAT-2D",
        "group": "resource",
        "lat": 58.30288115729186,
        "lon": -125.77224853713105,
        "alt_km": 500.62239564558695,
        "timestamp": "2025-12-10T11:33:53.048822+00:00",
        "meta_object_name": "CARTOSAT-2D",
        "meta_object_id": "2017-008A",
        "meta_epoch": "2025-12-10T04:42:41.177088",
        "meta_mean_motion": 15.19212406,
        "meta_eccentricity": 0.0004374,
        "meta_inclination": 97.4386,
        "meta_ra_of_asc_node": 41.7322,
        "meta_arg_of_pericenter": 170.2477,
        "meta_mean_anomaly": 189.8844,
        "meta_ephemeris_type": 0,
        "meta_classification_type": "U",
        "meta_norad_cat_id": 41948,
        "meta_element_set_no": 999,
        "meta_rev_at_epoch": 48888,
        "meta_bstar": 0.00023307,
        "meta_mean_motion_dot": 4.84e-05,
        "meta_mean_motion_ddot": 0,
        "tle_line1": "1 41948U 17008A   25344.19630992  .00004840  00000+0  23307-3 0  9992",
        "tle_line2": "2 41948  97.4386  41.7322 0004374 170.2477 189.8844 15.19212406488889"
      },
      "geometry": {
        "type": "Point",
        "coordinates": [
          -125.77224853713105,
          58.30288115729186
        ]
      }
    },
    {
      "type": "Feature",
      "properties": {
        "norad_id": 42063,
        "name": "SENTINEL-2B",
        "group": "resource",
        "lat": 77.32308766807158,
        "lon": 14.852063702185825,
        "alt_km": 780.9284193527301,
        "timestamp": "2025-12-10T11:33:53.048832+00:00",
        "meta_object_name": "SENTINEL-2B",
        "meta_object_id": "2017-013A",
        "meta_epoch": "2025-12-10T04:28:33.798720",
        "meta_mean_motion": 14.30814582,
        "meta_eccentricity": 0.0001136,
        "meta_inclination": 98.5715,
        "meta_ra_of_asc_node": 56.668,
        "meta_arg_of_pericenter": 94.0571,
        "meta_mean_anomaly": 266.0742,
        "meta_ephemeris_type": 0,
        "meta_classification_type": "U",
        "meta_norad_cat_id": 42063,
        "meta_element_set_no": 999,
        "meta_rev_at_epoch": 45761,
        "meta_bstar": 0.00011871,
        "meta_mean_motion_dot": 2.67e-06,
        "meta_mean_motion_ddot": 0,
        "tle_line1": "1 42063U 17013A   25344.18650230  .00000267  00000+0  11871-3 0  9995",
        "tle_line2": "2 42063  98.5715  56.6680 0001136  94.0571 266.0742 14.30814582457616"
      },
      "geometry": {
        "type": "Point",
        "coordinates": [
          14.852063702185825,
          77.32308766807158
        ]
      }
    },
    {
      "type": "Feature",
      "properties": {
        "norad_id": 42767,
        "name": "CARTOSAT-2E",
        "group": "resource",
        "lat": 31.40417413000599,
        "lon": 37.51180238987292,
        "alt_km": 507.66238115126544,
        "timestamp": "2025-12-10T11:33:53.048842+00:00",
        "meta_object_name": "CARTOSAT-2E",
        "meta_object_id": "2017-036C",
        "meta_epoch": "2025-12-10T03:31:19.462656",
        "meta_mean_motion": 15.19277375,
        "meta_eccentricity": 0.0002352,
        "meta_inclination": 97.4557,
        "meta_ra_of_asc_node": 41.7667,
        "meta_arg_of_pericenter": 248.0466,
        "meta_mean_anomaly": 112.0519,
        "meta_ephemeris_type": 0,
        "meta_classification_type": "U",
        "meta_norad_cat_id": 42767,
        "meta_element_set_no": 999,
        "meta_rev_at_epoch": 46944,
        "meta_bstar": 0.00023108,
        "meta_mean_motion_dot": 4.806e-05,
        "meta_mean_motion_ddot": 0,
        "tle_line1": "1 42767U 17036C   25344.14675304  .00004806  00000+0  23108-3 0  9995",
        "tle_line2": "2 42767  97.4557  41.7667 0002352 248.0466 112.0519 15.19277375469441"
      },
      "geometry": {
        "type": "Point",
        "coordinates": [
          37.51180238987292,
          31.40417413000599
        ]
      }
    },
    {
      "type": "Feature",
      "properties": {
        "norad_id": 42920,
        "name": "FORMOSAT-5",
        "group": "resource",
        "lat": -77.92406421885522,
        "lon": 101.5161543714257,
        "alt_km": 723.2468911432106,
        "timestamp": "2025-12-10T11:33:53.048852+00:00",
        "meta_object_name": "FORMOSAT-5",
        "meta_object_id": "2017-049A",
        "meta_epoch": "2025-12-10T03:39:45.385632",
        "meta_mean_motion": 14.51002901,
        "meta_eccentricity": 0.0009985,
        "meta_inclination": 98.2454,
        "meta_ra_of_asc_node": 58.5229,
        "meta_arg_of_pericenter": 304.326,
        "meta_mean_anomaly": 55.6989,
        "meta_ephemeris_type": 0,
        "meta_classification_type": "U",
        "meta_norad_cat_id": 42920,
        "meta_element_set_no": 999,
        "meta_rev_at_epoch": 43926,
        "meta_bstar": 0.00011038,
        "meta_mean_motion_dot": 3.93e-06,
        "meta_mean_motion_ddot": 0,
        "tle_line1": "1 42920U 17049A   25344.15260863  .00000393  00000+0  11038-3 0  9997",
        "tle_line2": "2 42920  98.2454  58.5229 0009985 304.3260  55.6989 14.51002901439260"
      },
      "geometry": {
        "type": "Point",
        "coordinates": [
          101.5161543714257,
          -77.92406421885522
        ]
      }
    },
    {
      "type": "Feature",
      "properties": {
        "norad_id": 42969,
        "name": "SENTINEL-5P",
        "group": "resource",
        "lat": -29.650386040298358,
        "lon": 98.03985140866965,
        "alt_km": 833.2441828977908,
        "timestamp": "2025-12-10T11:33:53.048862+00:00",
        "meta_object_name": "SENTINEL-5P",
        "meta_object_id": "2017-064A",
        "meta_epoch": "2025-12-09T19:21:14.019264",
        "meta_mean_motion": 14.19516395,
        "meta_eccentricity": 9.57e-05,
        "meta_inclination": 98.7781,
        "meta_ra_of_asc_node": 282.4166,
        "meta_arg_of_pericenter": 87.4658,
        "meta_mean_anomaly": 272.6628,
        "meta_ephemeris_type": 0,
        "meta_classification_type": "U",
        "meta_norad_cat_id": 42969,
        "meta_element_set_no": 999,
        "meta_rev_at_epoch": 42269,
        "meta_bstar": 0.00010691,
        "meta_mean_motion_dot": 1.81e-06,
        "meta_mean_motion_ddot": 0,
        "tle_line1": "1 42969U 17064A   25343.80641226  .00000181  00000+0  10691-3 0  9993",
        "tle_line2": "2 42969  98.7781 282.4166 0000957  87.4658 272.6628 14.19516395422690"
      },
      "geometry": {
        "type": "Point",
        "coordinates": [
          98.03985140866965,
          -29.650386040298358
        ]
      }
    },
    {
      "type": "Feature",
      "properties": {
        "norad_id": 42987,
        "name": "SKYSAT-C11",
        "group": "resource",
        "lat": 5.836637806907806,
        "lon": 121.15488359268801,
        "alt_km": 427.0830563189502,
        "timestamp": "2025-12-10T11:33:53.048872+00:00",
        "meta_object_name": "SKYSAT-C11",
        "meta_object_id": "2017-068A",
        "meta_epoch": "2025-12-09T20:01:05.077056",
        "meta_mean_motion": 15.47255568,
        "meta_eccentricity": 9.58e-05,
        "meta_inclination": 97.4145,
        "meta_ra_of_asc_node": 121.2541,
        "meta_arg_of_pericenter": 107.8305,
        "meta_mean_anomaly": 252.305,
        "meta_ephemeris_type": 0,
        "meta_classification_type": "U",
        "meta_norad_cat_id": 42987,
        "meta_element_set_no": 999,
        "meta_rev_at_epoch": 45386,
        "meta_bstar": 0.00060358,
        "meta_mean_motion_dot": 0.00030725,
        "meta_mean_motion_ddot": 0,
        "tle_line1": "1 42987U 17068A   25343.83408654  .00030725  00000+0  60358-3 0  9998",
        "tle_line2": "2 42987  97.4145 121.2541 0000958 107.8305 252.3050 15.47255568453865"
      },
      "geometry": {
        "type": "Point",
        "coordinates": [
          121.15488359268801,
          5.836637806907806
        ]
      }
    }
  ]
}